start=new Date('2022-12-13T00:00:00.000Z').valueOf();
sats=[{"OBJECT_NAME":"STARLINK-1340","LAUNCH_DATE":"2020-04-22","FILE":"3694071","NORAD_CAT_ID":"45583","SITE":"AFETR","RCS_SIZE":"LARGE","EPHEMERIS_TYPE":"0","OBJECT_ID":"2020-025BE","CLASSIFICATION_TYPE":"U","GP_ID":"220165337","APOAPSIS":"548.432","OBJECT_TYPE":"PAYLOAD","EPOCH":"2022-12-12T10:28:27.489792","TLE_LINE1":"1 45583U 20025BE  22346.43642928  .00003942  00000-0  28337-3 0  9993","DECAY_DATE":null,"MEAN_ELEMENT_THEORY":"SGP4","PERIAPSIS":"545.990","INCLINATION":"53.0560","ARG_OF_PERICENTER":"67.5994","MEAN_MOTION":"15.06400931","ELEMENT_SET_NO":"999","CENTER_NAME":"EARTH","TLE_LINE2":"2 45583  53.0560 348.4586 0001763  67.5994 292.5182 15.06400931147168","REF_FRAME":"TEME","BSTAR":"0.00028337000000","MEAN_MOTION_DDOT":"0.0000000000000","TIME_SYSTEM":"UTC","RA_OF_ASC_NODE":"348.4586","ECCENTRICITY":"0.00017630","REV_AT_EPOCH":"14716","SEMIMAJOR_AXIS":"6925.346","COUNTRY_CODE":"US","MEAN_MOTION_DOT":"0.00003942","PERIOD":"95.592","MEAN_ANOMALY":"292.5182"},{"OBJECT_NAME":"STARLINK-1343","LAUNCH_DATE":"2020-04-22","NORAD_CAT_ID":"45584","FILE":"3694071","RCS_SIZE":"LARGE","SITE":"AFETR","EPHEMERIS_TYPE":"0","OBJECT_ID":"2020-025BF","GP_ID":"220165081","CLASSIFICATION_TYPE":"U","APOAPSIS":"548.544","OBJECT_TYPE":"PAYLOAD","EPOCH":"2022-12-12T10:11:09.496608","TLE_LINE1":"1 45584U 20025BF  22346.42441547  .00002907  00000-0  21397-3 0  9996","DECAY_DATE":null,"MEAN_ELEMENT_THEORY":"SGP4","PERIAPSIS":"545.840","INCLINATION":"53.0544","ARG_OF_PERICENTER":"52.2794","MEAN_MOTION":"15.06407074","ELEMENT_SET_NO":"999","TLE_LINE2":"2 45584  53.0544 348.5053 0001952  52.2794 307.8372 15.06407074147166","CENTER_NAME":"EARTH","BSTAR":"0.00021397000000","REF_FRAME":"TEME","TIME_SYSTEM":"UTC","MEAN_MOTION_DDOT":"0.0000000000000","RA_OF_ASC_NODE":"348.5053","REV_AT_EPOCH":"14716","ECCENTRICITY":"0.00019520","SEMIMAJOR_AXIS":"6925.327","COUNTRY_CODE":"US","MEAN_MOTION_DOT":"0.00002907","MEAN_ANOMALY":"307.8372","PERIOD":"95.592"},{"BSTAR":"0.00092682000000","REF_FRAME":"TEME","TIME_SYSTEM":"UTC","MEAN_MOTION_DDOT":"0.0000000000000","MEAN_MOTION":"15.06335761","ARG_OF_PERICENTER":"317.0475","PERIAPSIS":"546.750","INCLINATION":"53.0567","TLE_LINE2":"2 45586  53.0567 349.3060 0000953 317.0475  43.0439 15.06335761147120","CENTER_NAME":"EARTH","ELEMENT_SET_NO":"999","COUNTRY_CODE":"US","MEAN_ANOMALY":"43.0439","PERIOD":"95.596","MEAN_MOTION_DOT":"0.00013527","RA_OF_ASC_NODE":"349.3060","SEMIMAJOR_AXIS":"6925.545","REV_AT_EPOCH":"14712","ECCENTRICITY":"0.00009530","EPHEMERIS_TYPE":"0","RCS_SIZE":"LARGE","SITE":"AFETR","OBJECT_ID":"2020-025BH","FILE":"3694071","NORAD_CAT_ID":"45586","OBJECT_NAME":"STARLINK-1347","LAUNCH_DATE":"2020-04-22","TLE_LINE1":"1 45586U 20025BH  22346.24844900  .00013527  00000-0  92682-3 0  9993","MEAN_ELEMENT_THEORY":"SGP4","DECAY_DATE":null,"GP_ID":"220164592","CLASSIFICATION_TYPE":"U","OBJECT_TYPE":"PAYLOAD","EPOCH":"2022-12-12T05:57:45.993600","APOAPSIS":"548.070"},{"TIME_SYSTEM":"UTC","MEAN_MOTION_DDOT":"0.0000000000000","BSTAR":"-0.00000362590000","REF_FRAME":"TEME","ELEMENT_SET_NO":"999","TLE_LINE2":"2 45587  53.0560 348.2381 0001839  62.4847 297.6329 15.06390940147176","CENTER_NAME":"EARTH","PERIAPSIS":"545.968","INCLINATION":"53.0560","ARG_OF_PERICENTER":"62.4847","MEAN_MOTION":"15.06390940","MEAN_MOTION_DOT":"-0.00000336","MEAN_ANOMALY":"297.6329","PERIOD":"95.593","COUNTRY_CODE":"US","REV_AT_EPOCH":"14717","ECCENTRICITY":"0.00018390","SEMIMAJOR_AXIS":"6925.376","RA_OF_ASC_NODE":"348.2381","OBJECT_ID":"2020-025BJ","RCS_SIZE":"LARGE","SITE":"AFETR","EPHEMERIS_TYPE":"0","OBJECT_NAME":"STARLINK-1349","LAUNCH_DATE":"2020-04-22","FILE":"3694071","NORAD_CAT_ID":"45587","DECAY_DATE":null,"MEAN_ELEMENT_THEORY":"SGP4","TLE_LINE1":"1 45587U 20025BJ  22346.48433960 -.00000336  00000-0 -36259-5 0  9996","APOAPSIS":"548.515","EPOCH":"2022-12-12T11:37:26.941440","OBJECT_TYPE":"PAYLOAD","GP_ID":"220164837","CLASSIFICATION_TYPE":"U"},{"SEMIMAJOR_AXIS":"6925.331","REV_AT_EPOCH":"14722","ECCENTRICITY":"0.00015260","RA_OF_ASC_NODE":"346.5437","MEAN_ANOMALY":"292.0207","PERIOD":"95.592","MEAN_MOTION_DOT":"0.00002691","COUNTRY_CODE":"US","TLE_LINE2":"2 45588  53.0547 346.5437 0001526  68.0944 292.0207 15.06405777147223","CENTER_NAME":"EARTH","ELEMENT_SET_NO":"999","MEAN_MOTION":"15.06405777","ARG_OF_PERICENTER":"68.0944","PERIAPSIS":"546.139","INCLINATION":"53.0547","TIME_SYSTEM":"UTC","MEAN_MOTION_DDOT":"0.0000000000000","BSTAR":"0.00019946000000","REF_FRAME":"TEME","EPOCH":"2022-12-12T20:38:50.012448","OBJECT_TYPE":"PAYLOAD","APOAPSIS":"548.253","GP_ID":"220205725","CLASSIFICATION_TYPE":"U","MEAN_ELEMENT_THEORY":"SGP4","DECAY_DATE":null,"TLE_LINE1":"1 45588U 20025BK  22346.86030107  .00002691  00000-0  19946-3 0  9991","NORAD_CAT_ID":"45588","FILE":"3695286","LAUNCH_DATE":"2020-04-22","OBJECT_NAME":"STARLINK-1360","OBJECT_ID":"2020-025BK","EPHEMERIS_TYPE":"0","RCS_SIZE":"LARGE","SITE":"AFETR"},{"CLASSIFICATION_TYPE":"U","GP_ID":"220205973","APOAPSIS":"548.395","OBJECT_TYPE":"PAYLOAD","EPOCH":"2022-12-12T15:46:54.648480","TLE_LINE1":"1 45589U 20025BL  22346.65757695  .00000504  00000-0  52749-4 0  9997","DECAY_DATE":null,"MEAN_ELEMENT_THEORY":"SGP4","LAUNCH_DATE":"2020-04-22","OBJECT_NAME":"STARLINK-1364","FILE":"3695286","NORAD_CAT_ID":"45589","SITE":"AFETR","RCS_SIZE":"LARGE","EPHEMERIS_TYPE":"0","OBJECT_ID":"2020-025BL","RA_OF_ASC_NODE":"347.4672","ECCENTRICITY":"0.00016910","REV_AT_EPOCH":"14719","SEMIMAJOR_AXIS":"6925.359","COUNTRY_CODE":"US","MEAN_MOTION_DOT":"0.00000504","PERIOD":"95.592","MEAN_ANOMALY":"308.5457","INCLINATION":"53.0549","PERIAPSIS":"546.053","ARG_OF_PERICENTER":"51.5684","MEAN_MOTION":"15.06396539","ELEMENT_SET_NO":"999","CENTER_NAME":"EARTH","TLE_LINE2":"2 45589  53.0549 347.4672 0001691  51.5684 308.5457 15.06396539147199","REF_FRAME":"TEME","BSTAR":"0.00005274900000","MEAN_MOTION_DDOT":"0.0000000000000","TIME_SYSTEM":"UTC"},{"COUNTRY_CODE":"US","PERIOD":"95.593","MEAN_ANOMALY":"309.1738","MEAN_MOTION_DOT":"0.00000285","RA_OF_ASC_NODE":"18.5776","SEMIMAJOR_AXIS":"6925.367","ECCENTRICITY":"0.00021370","REV_AT_EPOCH":"14675","REF_FRAME":"TEME","BSTAR":"0.00003805800000","MEAN_MOTION_DDOT":"0.0000000000000","TIME_SYSTEM":"UTC","MEAN_MOTION":"15.06394065","ARG_OF_PERICENTER":"50.9441","PERIAPSIS":"545.752","INCLINATION":"53.0567","CENTER_NAME":"EARTH","TLE_LINE2":"2 45590  53.0567  18.5776 0002137  50.9441 309.1738 15.06394065146754","ELEMENT_SET_NO":"999","TLE_LINE1":"1 45590U 20025BM  22346.40784863  .00000285  00000-0  38058-4 0  9992","MEAN_ELEMENT_THEORY":"SGP4","DECAY_DATE":null,"CLASSIFICATION_TYPE":"U","GP_ID":"220164092","EPOCH":"2022-12-12T09:47:18.121632","OBJECT_TYPE":"PAYLOAD","APOAPSIS":"548.712","EPHEMERIS_TYPE":"0","SITE":"AFETR","RCS_SIZE":"LARGE","OBJECT_ID":"2020-025BM","FILE":"3694071","NORAD_CAT_ID":"45590","OBJECT_NAME":"STARLINK-1365","LAUNCH_DATE":"2020-04-22"},{"MEAN_ANOMALY":"326.8964","PERIOD":"95.594","MEAN_MOTION_DOT":"-0.00000704","COUNTRY_CODE":"US","SEMIMAJOR_AXIS":"6925.438","REV_AT_EPOCH":"14036","ECCENTRICITY":"0.00036320","RA_OF_ASC_NODE":"339.2881","TIME_SYSTEM":"UTC","MEAN_MOTION_DDOT":"0.0000000000000","BSTAR":"-0.00002830100000","REF_FRAME":"TEME","TLE_LINE2":"2 45658  53.0577 339.2881 0003632  33.2252 326.8964 15.06370962140363","CENTER_NAME":"EARTH","ELEMENT_SET_NO":"999","MEAN_MOTION":"15.06370962","PERIAPSIS":"544.787","INCLINATION":"53.0577","ARG_OF_PERICENTER":"33.2252","MEAN_ELEMENT_THEORY":"SGP4","DECAY_DATE":null,"TLE_LINE1":"1 45658U 20035B   22346.24939454 -.00000704  00000-0 -28301-4 0  9996","OBJECT_TYPE":"PAYLOAD","EPOCH":"2022-12-12T05:59:07.688256","APOAPSIS":"549.818","GP_ID":"220165088","CLASSIFICATION_TYPE":"U","OBJECT_ID":"2020-035B","EPHEMERIS_TYPE":"0","RCS_SIZE":"LARGE","SITE":"AFETR","NORAD_CAT_ID":"45658","FILE":"3694071","LAUNCH_DATE":"2020-06-04","OBJECT_NAME":"STARLINK-1441"},{"SEMIMAJOR_AXIS":"6925.350","ECCENTRICITY":"0.00014540","REV_AT_EPOCH":"14038","RA_OF_ASC_NODE":"338.3826","PERIOD":"95.592","MEAN_ANOMALY":"260.5878","MEAN_MOTION_DOT":"0.00001631","COUNTRY_CODE":"US","CENTER_NAME":"EARTH","TLE_LINE2":"2 45659  53.0544 338.3826 0001454  99.5275 260.5878 15.06399692140388","ELEMENT_SET_NO":"999","MEAN_MOTION":"15.06399692","INCLINATION":"53.0544","PERIAPSIS":"546.208","ARG_OF_PERICENTER":"99.5275","MEAN_MOTION_DDOT":"0.0000000000000","TIME_SYSTEM":"UTC","REF_FRAME":"TEME","BSTAR":"0.00012836000000","EPOCH":"2022-12-12T10:49:38.793216","OBJECT_TYPE":"PAYLOAD","APOAPSIS":"548.221","CLASSIFICATION_TYPE":"U","GP_ID":"220163848","MEAN_ELEMENT_THEORY":"SGP4","DECAY_DATE":null,"TLE_LINE1":"1 45659U 20035C   22346.45114344  .00001631  00000-0  12836-3 0  9996","FILE":"3694071","NORAD_CAT_ID":"45659","LAUNCH_DATE":"2020-06-04","OBJECT_NAME":"STARLINK-1442","OBJECT_ID":"2020-035C","EPHEMERIS_TYPE":"0","SITE":"AFETR","RCS_SIZE":"LARGE"},{"RA_OF_ASC_NODE":"337.4606","SEMIMAJOR_AXIS":"6925.346","ECCENTRICITY":"0.00016430","REV_AT_EPOCH":"14042","COUNTRY_CODE":"US","PERIOD":"95.592","MEAN_ANOMALY":"298.2101","MEAN_MOTION_DOT":"0.00000347","MEAN_MOTION":"15.06400926","INCLINATION":"53.0562","PERIAPSIS":"546.073","ARG_OF_PERICENTER":"61.9054","CENTER_NAME":"EARTH","TLE_LINE2":"2 45660  53.0562 337.4606 0001643  61.9054 298.2101 15.06400926140429","ELEMENT_SET_NO":"999","REF_FRAME":"TEME","BSTAR":"0.00004222100000","MEAN_MOTION_DDOT":"0.0000000000000","TIME_SYSTEM":"UTC","CLASSIFICATION_TYPE":"U","GP_ID":"220205228","OBJECT_TYPE":"PAYLOAD","EPOCH":"2022-12-12T15:48:13.612032","APOAPSIS":"548.349","TLE_LINE1":"1 45660U 20035D   22346.65849088  .00000347  00000-0  42221-4 0  9995","MEAN_ELEMENT_THEORY":"SGP4","DECAY_DATE":null,"NORAD_CAT_ID":"45660","FILE":"3695286","OBJECT_NAME":"STARLINK-1443","LAUNCH_DATE":"2020-06-04","EPHEMERIS_TYPE":"0","SITE":"AFETR","RCS_SIZE":"LARGE","OBJECT_ID":"2020-035D"}];
